{
  "norad_id": 57761,
  "name": "WILDFIRE 7",
  "history": [
    {
      "epoch": "2026-03-28T23:00:05.683104Z",
      "apogee_km": 949.0394474419772,
      "perigee_km": 942.7672857528305,
      "latitude_deg": -5.77049556020958e-05,
      "longitude_deg": -86.45716591430045,
      "height_km": 950.0038477803496,
      "semi_major_axis_km": 7324.040366597404,
      "eccentricity": 0.00042819,
      "inclination_deg": 80.9951,
      "raan_deg": 84.9379,
      "arg_perigee_deg": 246.7379,
      "mean_anomaly_deg": 113.3326,
      "mean_motion_rev_day": 13.85085772
    },
    {
      "epoch": "2026-03-29T02:28:08.190048Z",
      "apogee_km": 949.0408902694917,
      "perigee_km": 942.76565256494,
      "latitude_deg": -3.529041123719389e-06,
      "longitude_deg": -138.74870247774066,
      "height_km": 950.0288953272436,
      "semi_major_axis_km": 7324.040271417215,
      "eccentricity": 0.0004284,
      "inclination_deg": 80.9951,
      "raan_deg": 84.7992,
      "arg_perigee_deg": 246.2491,
      "mean_anomaly_deg": 113.8216,
      "mean_motion_rev_day": 13.85085799
    },
    {
      "epoch": "2026-03-30T01:00:24.480864Z",
      "apogee_km": 949.0479416027038,
      "perigee_km": 942.7565918725759,
      "latitude_deg": 1.3526691290077457e-05,
      "longitude_deg": -118.6436746461007,
      "height_km": 950.179504838532,
      "semi_major_axis_km": 7324.039266737639,
      "eccentricity": 0.0004295,
      "inclination_deg": 80.9953,
      "raan_deg": 83.8977,
      "arg_perigee_deg": 243.2601,
      "mean_anomaly_deg": 116.8116,
      "mean_motion_rev_day": 13.85086084
    },
    {
      "epoch": "2026-03-30T06:12:28.237824Z",
      "apogee_km": 949.0581548228383,
      "perigee_km": 942.7460049822157,
      "latitude_deg": 7.78887693930221e-05,
      "longitude_deg": 162.91898247981018,
      "height_km": 950.2189285116574,
      "semi_major_axis_km": 7324.039079902527,
      "eccentricity": 0.00043092,
      "inclination_deg": 80.9953,
      "raan_deg": 83.6896,
      "arg_perigee_deg": 242.5476,
      "mean_anomaly_deg": 117.5243,
      "mean_motion_rev_day": 13.85086137
    }
  ]
}